start=new Date('2022-02-10T00:00:00.000Z').valueOf();
sats=[{"EPOCH":"2022-02-09T19:09:37.192896","REV_AT_EPOCH":"9289","INCLINATION":"53.0534","REF_FRAME":"TEME","OBJECT_ID":"2020-038N","DECAY_DATE":null,"SEMIMAJOR_AXIS":"6925.357","NORAD_CAT_ID":"45742","RA_OF_ASC_NODE":"80.5069","MEAN_MOTION":"15.06397141","APOAPSIS":"548.435","MEAN_MOTION_DDOT":"0.0000000000000","TLE_LINE2":"2 45742  53.0534  80.5069 0001751  63.5913 296.5255 15.06397141 92892","EPHEMERIS_TYPE":"0","MEAN_ELEMENT_THEORY":"SGP4","PERIOD":"95.592","PERIAPSIS":"546.010","MEAN_MOTION_DOT":"0.00002002","LAUNCH_DATE":"2020-06-13","FILE":"3296087","SITE":"AFETR","TLE_LINE1":"1 45742U 20038N   22040.79834714  .00002002  00000-0  15327-3 0  9991","MEAN_ANOMALY":"296.5255","RCS_SIZE":"LARGE","TIME_SYSTEM":"UTC","ELEMENT_SET_NO":"999","BSTAR":"0.00015327000000","OBJECT_TYPE":"PAYLOAD","CENTER_NAME":"EARTH","ARG_OF_PERICENTER":"63.5913","COUNTRY_CODE":"US","ECCENTRICITY":"0.00017510","OBJECT_NAME":"STARLINK-1481","CLASSIFICATION_TYPE":"U","GP_ID":"195645088"},{"ECCENTRICITY":"0.00017650","OBJECT_NAME":"STARLINK-1483","CLASSIFICATION_TYPE":"U","GP_ID":"195638078","ELEMENT_SET_NO":"999","SITE":"AFETR","TLE_LINE1":"1 45743U 20038P   22040.41869557  .00002294  00000-0  17281-3 0  9998","MEAN_ANOMALY":"299.5905","RCS_SIZE":"LARGE","TIME_SYSTEM":"UTC","ARG_OF_PERICENTER":"60.5260","COUNTRY_CODE":"US","BSTAR":"0.00017281000000","OBJECT_TYPE":"PAYLOAD","CENTER_NAME":"EARTH","MEAN_MOTION":"15.06409645","APOAPSIS":"548.406","SEMIMAJOR_AXIS":"6925.319","NORAD_CAT_ID":"45743","RA_OF_ASC_NODE":"82.0650","PERIAPSIS":"545.962","MEAN_MOTION_DOT":"0.00002294","LAUNCH_DATE":"2020-06-13","FILE":"3295989","MEAN_MOTION_DDOT":"0.0000000000000","TLE_LINE2":"2 45743  53.0543  82.0650 0001765  60.5260 299.5905 15.06409645 91722","EPHEMERIS_TYPE":"0","MEAN_ELEMENT_THEORY":"SGP4","PERIOD":"95.592","REF_FRAME":"TEME","OBJECT_ID":"2020-038P","EPOCH":"2022-02-09T10:02:55.297248","REV_AT_EPOCH":"9172","INCLINATION":"53.0543","DECAY_DATE":null},{"REF_FRAME":"TEME","OBJECT_ID":"2020-038Q","EPOCH":"2022-02-09T12:31:32.605824","REV_AT_EPOCH":"9266","INCLINATION":"53.0523","DECAY_DATE":null,"APOAPSIS":"548.330","MEAN_MOTION":"15.06409190","SEMIMAJOR_AXIS":"6925.320","NORAD_CAT_ID":"45744","RA_OF_ASC_NODE":"81.7517","PERIAPSIS":"546.041","MEAN_MOTION_DOT":"0.00009509","LAUNCH_DATE":"2020-06-13","FILE":"3295765","MEAN_MOTION_DDOT":"0.0000000000000","TLE_LINE2":"2 45744  53.0523  81.7517 0001653  62.6214 297.4943 15.06409190 92665","EPHEMERIS_TYPE":"0","PERIOD":"95.592","MEAN_ELEMENT_THEORY":"SGP4","ELEMENT_SET_NO":"999","SITE":"AFETR","TLE_LINE1":"1 45744U 20038Q   22040.52190516  .00009509  00000-0  65626-3 0  9995","MEAN_ANOMALY":"297.4943","RCS_SIZE":"LARGE","TIME_SYSTEM":"UTC","ARG_OF_PERICENTER":"62.6214","COUNTRY_CODE":"US","BSTAR":"0.00065626000000","OBJECT_TYPE":"PAYLOAD","CENTER_NAME":"EARTH","ECCENTRICITY":"0.00016530","CLASSIFICATION_TYPE":"U","OBJECT_NAME":"STARLINK-1500","GP_ID":"195613812"},{"GP_ID":"195639080","OBJECT_NAME":"STARLINK-1503","CLASSIFICATION_TYPE":"U","ECCENTRICITY":"0.00016630","CENTER_NAME":"EARTH","BSTAR":"0.00074040000000","OBJECT_TYPE":"PAYLOAD","COUNTRY_CODE":"US","ARG_OF_PERICENTER":"64.7928","RCS_SIZE":"LARGE","TIME_SYSTEM":"UTC","SITE":"AFETR","TLE_LINE1":"1 45745U 20038R   22040.37813632  .00010757  00000-0  74040-3 0  9997","MEAN_ANOMALY":"295.3234","ELEMENT_SET_NO":"999","EPHEMERIS_TYPE":"0","MEAN_ELEMENT_THEORY":"SGP4","PERIOD":"95.594","MEAN_MOTION_DDOT":"0.0000000000000","TLE_LINE2":"2 45745  53.0540  82.4072 0001663  64.7928 295.3234 15.06376227 91714","LAUNCH_DATE":"2020-06-13","FILE":"3295989","PERIAPSIS":"546.135","MEAN_MOTION_DOT":"0.00010757","RA_OF_ASC_NODE":"82.4072","SEMIMAJOR_AXIS":"6925.421","NORAD_CAT_ID":"45745","APOAPSIS":"548.438","MEAN_MOTION":"15.06376227","DECAY_DATE":null,"REV_AT_EPOCH":"9171","INCLINATION":"53.0540","EPOCH":"2022-02-09T09:04:30.978048","REF_FRAME":"TEME","OBJECT_ID":"2020-038R"},{"ECCENTRICITY":"0.00018920","OBJECT_NAME":"STARLINK-1504","CLASSIFICATION_TYPE":"U","GP_ID":"195637328","ELEMENT_SET_NO":"999","MEAN_ANOMALY":"302.7838","SITE":"AFETR","TLE_LINE1":"1 45746U 20038S   22040.52558436  .00003889  00000-0  27987-3 0  9999","TIME_SYSTEM":"UTC","RCS_SIZE":"LARGE","ARG_OF_PERICENTER":"57.3334","COUNTRY_CODE":"US","OBJECT_TYPE":"PAYLOAD","BSTAR":"0.00027987000000","CENTER_NAME":"EARTH","MEAN_MOTION":"15.06399582","APOAPSIS":"548.525","SEMIMAJOR_AXIS":"6925.350","NORAD_CAT_ID":"45746","RA_OF_ASC_NODE":"81.7280","MEAN_MOTION_DOT":"0.00003889","PERIAPSIS":"545.905","FILE":"3295989","LAUNCH_DATE":"2020-06-13","TLE_LINE2":"2 45746  53.0529  81.7280 0001892  57.3334 302.7838 15.06399582 91732","MEAN_MOTION_DDOT":"0.0000000000000","MEAN_ELEMENT_THEORY":"SGP4","PERIOD":"95.592","EPHEMERIS_TYPE":"0","OBJECT_ID":"2020-038S","REF_FRAME":"TEME","EPOCH":"2022-02-09T12:36:50.488704","INCLINATION":"53.0529","REV_AT_EPOCH":"9173","DECAY_DATE":null},{"ELEMENT_SET_NO":"999","SITE":"AFETR","TLE_LINE1":"1 45747U 20038T   22040.39656805  .00000610  00000-0  59857-4 0  9995","MEAN_ANOMALY":"296.6504","RCS_SIZE":"LARGE","TIME_SYSTEM":"UTC","ARG_OF_PERICENTER":"63.4673","COUNTRY_CODE":"US","BSTAR":"0.00005985700000","OBJECT_TYPE":"PAYLOAD","CENTER_NAME":"EARTH","ECCENTRICITY":"0.00018310","OBJECT_NAME":"STARLINK-1506","CLASSIFICATION_TYPE":"U","GP_ID":"195637578","OBJECT_ID":"2020-038T","REF_FRAME":"TEME","EPOCH":"2022-02-09T09:31:03.479520","REV_AT_EPOCH":"9172","INCLINATION":"53.0549","DECAY_DATE":null,"APOAPSIS":"548.557","MEAN_MOTION":"15.06375514","SEMIMAJOR_AXIS":"6925.424","NORAD_CAT_ID":"45747","RA_OF_ASC_NODE":"82.3158","PERIAPSIS":"546.021","MEAN_MOTION_DOT":"0.00000610","LAUNCH_DATE":"2020-06-13","FILE":"3295989","MEAN_MOTION_DDOT":"0.0000000000000","TLE_LINE2":"2 45747  53.0549  82.3158 0001831  63.4673 296.6504 15.06375514 91722","EPHEMERIS_TYPE":"0","MEAN_ELEMENT_THEORY":"SGP4","PERIOD":"95.594"},{"ELEMENT_SET_NO":"999","RCS_SIZE":"LARGE","TIME_SYSTEM":"UTC","TLE_LINE1":"1 45748U 20038U   22040.51726988  .00003189  00000-0  23294-3 0  9999","SITE":"AFETR","MEAN_ANOMALY":"280.9931","COUNTRY_CODE":"US","ARG_OF_PERICENTER":"79.1233","CENTER_NAME":"EARTH","BSTAR":"0.00023294000000","OBJECT_TYPE":"PAYLOAD","CLASSIFICATION_TYPE":"U","OBJECT_NAME":"STARLINK-1507","ECCENTRICITY":"0.00015500","GP_ID":"195638830","OBJECT_ID":"2020-038U","REF_FRAME":"TEME","REV_AT_EPOCH":"9173","INCLINATION":"53.0518","EPOCH":"2022-02-09T12:24:52.117632","DECAY_DATE":null,"MEAN_MOTION":"15.06391817","APOAPSIS":"548.312","SEMIMAJOR_AXIS":"6925.374","NORAD_CAT_ID":"45748","RA_OF_ASC_NODE":"81.7867","LAUNCH_DATE":"2020-06-13","FILE":"3295989","PERIAPSIS":"546.165","MEAN_MOTION_DOT":"0.00003189","EPHEMERIS_TYPE":"0","PERIOD":"95.593","MEAN_ELEMENT_THEORY":"SGP4","MEAN_MOTION_DDOT":"0.0000000000000","TLE_LINE2":"2 45748  53.0518  81.7867 0001550  79.1233 280.9931 15.06391817 91738"},{"RCS_SIZE":"LARGE","TIME_SYSTEM":"UTC","SITE":"AFETR","TLE_LINE1":"1 45750U 20038W   22040.74489929  .00004359  00000-0  31133-3 0  9999","MEAN_ANOMALY":"301.0142","ELEMENT_SET_NO":"999","CENTER_NAME":"EARTH","BSTAR":"0.00031133000000","OBJECT_TYPE":"PAYLOAD","COUNTRY_CODE":"US","ARG_OF_PERICENTER":"59.0990","CLASSIFICATION_TYPE":"U","OBJECT_NAME":"STARLINK-1391","ECCENTRICITY":"0.00014540","GP_ID":"195645582","REV_AT_EPOCH":"9317","INCLINATION":"53.0545","EPOCH":"2022-02-09T17:52:39.298656","OBJECT_ID":"2020-038W","REF_FRAME":"TEME","DECAY_DATE":null,"NORAD_CAT_ID":"45750","SEMIMAJOR_AXIS":"6925.343","RA_OF_ASC_NODE":"60.7578","APOAPSIS":"548.214","MEAN_MOTION":"15.06401966","EPHEMERIS_TYPE":"0","PERIOD":"95.592","MEAN_ELEMENT_THEORY":"SGP4","MEAN_MOTION_DDOT":"0.0000000000000","TLE_LINE2":"2 45750  53.0545  60.7578 0001454  59.0990 301.0142 15.06401966 93173","LAUNCH_DATE":"2020-06-13","FILE":"3296103","PERIAPSIS":"546.201","MEAN_MOTION_DOT":"0.00004359"},{"APOAPSIS":"548.418","MEAN_MOTION":"15.06395857","NORAD_CAT_ID":"45751","SEMIMAJOR_AXIS":"6925.361","RA_OF_ASC_NODE":"60.7642","FILE":"3296224","LAUNCH_DATE":"2020-06-13","MEAN_MOTION_DOT":"0.00000076","PERIAPSIS":"546.034","PERIOD":"95.592","MEAN_ELEMENT_THEORY":"SGP4","EPHEMERIS_TYPE":"0","TLE_LINE2":"2 45751  53.0562  60.7642 0001721  55.2611 304.8540 15.06395857 93174","MEAN_MOTION_DDOT":"0.0000000000000","OBJECT_ID":"2020-038X","REF_FRAME":"TEME","INCLINATION":"53.0562","REV_AT_EPOCH":"9317","EPOCH":"2022-02-09T17:47:20.631264","DECAY_DATE":null,"CLASSIFICATION_TYPE":"U","OBJECT_NAME":"STARLINK-1464","ECCENTRICITY":"0.00017210","GP_ID":"195648166","ELEMENT_SET_NO":"999","TIME_SYSTEM":"UTC","RCS_SIZE":"LARGE","MEAN_ANOMALY":"304.8540","SITE":"AFETR","TLE_LINE1":"1 45751U 20038X   22040.74121101  .00000076  00000-0  24008-4 0  9991","COUNTRY_CODE":"US","ARG_OF_PERICENTER":"55.2611","CENTER_NAME":"EARTH","OBJECT_TYPE":"PAYLOAD","BSTAR":"0.00002400800000"},{"MEAN_MOTION_DDOT":"0.0000000000000","TLE_LINE2":"2 45752  53.0022 174.1988 0007822 334.5950  25.4685 15.81350789 95464","EPHEMERIS_TYPE":"0","MEAN_ELEMENT_THEORY":"SGP4","PERIOD":"91.061","PERIAPSIS":"321.377","MEAN_MOTION_DOT":"0.00087996","LAUNCH_DATE":"2020-06-13","FILE":"3295989","SEMIMAJOR_AXIS":"6704.757","NORAD_CAT_ID":"45752","RA_OF_ASC_NODE":"174.1988","APOAPSIS":"331.866","MEAN_MOTION":"15.81350789","DECAY_DATE":null,"EPOCH":"2022-02-09T14:12:32.232672","REV_AT_EPOCH":"9546","INCLINATION":"53.0022","REF_FRAME":"TEME","OBJECT_ID":"2020-038Y","GP_ID":"195638079","ECCENTRICITY":"0.00078220","OBJECT_NAME":"STARLINK-1469","CLASSIFICATION_TYPE":"U","BSTAR":"0.00043427000000","OBJECT_TYPE":"PAYLOAD","CENTER_NAME":"EARTH","ARG_OF_PERICENTER":"334.5950","COUNTRY_CODE":"US","SITE":"AFETR","TLE_LINE1":"1 45752U 20038Y   22040.59203973  .00087996  00000-0  43427-3 0  9994","MEAN_ANOMALY":"25.4685","RCS_SIZE":"LARGE","TIME_SYSTEM":"UTC","ELEMENT_SET_NO":"999"}];
